# Made by eph2tle, compiled Mar 12 2023 20:28:02
# Run at Tue Mar 21 17:07:17 2023
#
#    The following TLEs (Two-Line Elements) were generated by fitting
# a numerically-integrated ephemeris,  based on the orbit given below,
# to the SDP4/SGP4 models.  Each TLE is good for the interval between
# its epoch and the epoch of the subsequent TLE (usually one day).
# The maximum deviation between the numerically integrated ephemerides
# and the TLE-based ephemeris, in kilometers,  is given for each TLE
# as the "worst residual".
#
#    This fitting is done using the 'eph2tle' code packaged with Find_Orb.
# The code has details on how the TLEs were computed :
#
#    https://github.com/Bill-Gray/find_orb/eph2tle.cpp
#
#    Be warned:  the error given is that between the numerically
# integrated ephems and the TLE model.  There will usually be at
# least some additional difference between the ephems and the actual
# motion of the satellite,  especially if the ephemerides are based
# on a short arc.  If the following orbital elements say something
# like "[based on] 10 observations 2015 Jan. 1-13",  and the TLEs
# are for 2015 May,  the extrapolation may be tenuous at best.  If
# your application requires a specific level of accuracy,  you may
# want to contact me;  I can give you some idea as to the fit of the
# underlying data (and possibly TLEs based on newer data).
#
#   You can usually find the underlying observational data,  and the
# fitted orbit,  residuals,  ephemerides,  and sometimes some comments
# about the object,  among the pages listed at
#
#    https://www.projectpluto.com/pluto/mpecs/pseudo.htm
#
#    WARNING:  for this object,  "normal" TLEs cannot be fitted.  (This
# usually means an object with an hyperbolic or nearly-parabolic orbit.)
# For this and similar cases,   an alternative model is used,  in which
# most of the traditional TLE data is replaced by six signed 8-digit hex
# numbers.  These six numbers are a state vector,  numerically integrated
# using a simplified force model.  This is necessary for objects at L2 or
# L1,  and sometimes for objects in high orbits where the SDP4/SGP4 model
# fails.  Some documentation is in 'get_el.cpp' in the source code at
# https://www.github.com/Bill-Gray/sat_code ; look for 'hex' in that file,
# with the actual integration done in 'sdp4.cpp'.  But be aware:  it's my
# own extension,  doesn't work with other code,  and is therefore used
# only when necessary.
#
#    Also,  if you use a TLE outside the "correct" time range (between
# its MJD and that of the next TLE),  all bets are off.  I've carefully
# computed and minimized the worst error over the "correct" time frame,
# but the ephemeris may (or may not) diverge wildly outside of it.
#
# Ephem range: 59853.000000 60157.000000 1.000000
# Created Tue Mar 21 17:06:21 2023
# Ephemeris start:  1 Oct 2022  0:00:00
# Ephemeris end:    1 Aug 2023  0:00:00
# Times are all TDT
# Positions/velocities are in equatorial J2000
# Orbital elements:  A10TGEB
#    Perigee 2023 Mar 13.496939 +/- 6.95e-5 TT = 11:55:35.5 (JD 2460016.996939)
# Epoch 2023 Mar 21.0 TT = JDT 2460024.5                           Find_Orb
# M 115.487087685 +/- 0.0010          (J2000 equator)
# n  15.391996296 +/- 0.000104        Peri.    0.929226 +/- 0.00037
# a345467.2418 +/- 1.55               Node   357.727942 +/- 0.00035
# e   0.89444875 +/- 2.78e-6          Incl.   36.983409 +/- 0.0011
# P  23.39d                  H 30.06  G  0.15   U  6.6
# q 36464.49708 +/- 0.987    Q 654469.9867 +/- 3.01
# 93 of 95 observations 2023 Feb. 26-Mar. 21; mean residual 1".903
# Score: 2.033176
#
# 1 NoradU COSPAR   Epoch.epoch     dn/dt/2  d2n/dt2/6 BSTAR    T El# C
# 2 NoradU Inclina RAAscNode Eccent  ArgPeri MeanAno  MeanMotion Rev# C

# Worst residual: 1.77 km
# MJD 59853.000000 (2022 Oct  1  0:00)
A10TGEB
1 79970U 23999ZZU 22273.99919926 -004K28RA -002HP4NT -000LH3Y1H 19068
2 79970                          +0005RVM5 +0001DDF9 -00016C3C     05

# Worst residual: 1.13 km
# MJD 59854.000000 (2022 Oct  2  0:00)
A10TGEB
1 79970U 23999ZZU 22274.99919926 -002WRQNL -0020DLZK -000U0Q4DH 19063
2 79970                          +00087GNN +0002UQYW -0000OP9U     01

# Worst residual: 8.87 km
# MJD 59855.000000 (2022 Oct  3  0:00)
A10TGEB
1 79970U 23999ZZU 22275.99919926 -000AMC0L -000QWUX2 -000O4W8UH 19060
2 79970                          +000FGPHW +000BC0CQ +00054WKS     03

# Worst residual: 0.67 km
# MJD 59856.000000 (2022 Oct  4  0:00)
A10TGEB
1 79970U 23999ZZU 22276.99919926 -002B5U8J +000F6PZ6 +001IDJKWH 19063
2 79970                          -000A731Z -0001OYM7 +0002U0DM     07

# Worst residual: 0.58 km
# MJD 59857.000000 (2022 Oct  5  0:00)
A10TGEB
1 79970U 23999ZZU 22277.99919926 -00497GP4 -0001DXUY +001WGRVDH 19063
2 79970                          -0006KOTL -0001ZFNF +0000UPVP     03

# Worst residual: 0.72 km
# MJD 59858.000000 (2022 Oct  6  0:00)
A10TGEB
1 79970U 23999ZZU 22278.99919926 -005LI9D1 -000I6H46 +00209T2PH 19062
2 79970                          -0004R067 -0001VVPU +000041GH     09

# Worst residual: 0.70 km
# MJD 59859.000000 (2022 Oct  7  0:00)
A10TGEB
1 79970U 23999ZZU 22279.99919926 -006KWMA1 -000XTXYQ +001ZAIZQH 19067
2 79970                          -0003I7SR -0001QFE6 -0000B1V1     06

# Worst residual: 0.53 km
# MJD 59860.000000 (2022 Oct  8  0:00)
A10TGEB
1 79970U 23999ZZU 22280.99919926 -007AV5EB -001C45E4 +001VCUAVH 19068
2 79970                          -0002JA3Q -0001KKJN -0000L61Q     00

# Worst residual: 0.37 km
# MJD 59861.000000 (2022 Oct  9  0:00)
A10TGEB
1 79970U 23999ZZU 22281.99919926 -007T59PJ -001OZ52J +001PCCC7H 19069
2 79970                          -0001PQ6G -0001EL1D -0000SLWA     06

# Worst residual: 0.39 km
# MJD 59862.000000 (2022 Oct 10  0:00)
A10TGEB
1 79970U 23999ZZU 22282.99919926 -0084QJFX -0020DUUK +001HR7RWH 19065
2 79970                          -0000Z8IM -00018GFX -0000YE3B     07

# Worst residual: 0.34 km
# MJD 59863.000000 (2022 Oct 11  0:00)
A10TGEB
1 79970U 23999ZZU 22283.99919926 -008A6SKZ -002AALZ3 +0018XCCHH 19062
2 79970                          -0000AD8O -000122E1 -000130WR     05

# Worst residual: 0.27 km
# MJD 59864.000000 (2022 Oct 12  0:00)
A10TGEB
1 79970U 23999ZZU 22284.99919926 -0089RBEH -002IMC6U +000Z3EWIH 19063
2 79970                          +0000DXLW -0000V7TU -00016RKU     00

# Worst residual: 0.26 km
# MJD 59865.000000 (2022 Oct 13  0:00)
A10TGEB
1 79970U 23999ZZU 22285.99919926 -0083H0NR -002P7XQS +000OGLPSH 19066
2 79970                          +00012L1F -0000NMMX -00019PU6     06

# Worst residual: 0.29 km
# MJD 59866.000000 (2022 Oct 14  0:00)
A10TGEB
1 79970U 23999ZZU 22286.99919926 -007R4TNI -002TVCPD +000D7Q6TH 19063
2 79970                          +0001SJNX -0000EVXY -0001BUXR     08

# Worst residual: 0.35 km
# MJD 59867.000000 (2022 Oct 15  0:00)
A10TGEB
1 79970U 23999ZZU 22287.99919926 -0078AFKO -002W81IH +0001KEA8H 19063
2 79970                          +0002L1AK -00004C9W -0001D0NN     03

# Worst residual: 0.47 km
# MJD 59868.000000 (2022 Oct 16  0:00)
A10TGEB
1 79970U 23999ZZU 22288.99919926 -006I4PCK -002VPZ9Y -000A797BH 19064
2 79970                          +0003HW89 +000095IN -0001CR0D     00

# Worst residual: 0.65 km
# MJD 59869.000000 (2022 Oct 17  0:00)
A10TGEB
1 79970U 23999ZZU 22289.99919926 -005J945R -002REZQG -000LMWCLH 19066
2 79970                          +0004MGEW +0000RWTZ -00019YFU     09

# Worst residual: 0.74 km
# MJD 59870.000000 (2022 Oct 18  0:00)
A10TGEB
1 79970U 23999ZZU 22290.99919926 -00491PTZ -002HGO1N -000VTG7WH 19067
2 79970                          +000667PA +0001LSUR -00011DZO     07

# Worst residual: 0.36 km
# MJD 59871.000000 (2022 Oct 19  0:00)
A10TGEB
1 79970U 23999ZZU 22291.99919926 -002HMI42 -001X6B5C -001230TGH 19060
2 79970                          +0008TBFW +0003DLQL -000080PS     04

# Worst residual: 5.67 km
# MJD 59872.000000 (2022 Oct 20  0:00)
A10TGEB
1 79970U 23999ZZU 22292.99919926 +000BD2BR -00077M8T -000DOJJ5H 19063
2 79970                          +000BISIF +000JPKI7 +000HFDDU     01

# Worst residual: 1.82 km
# MJD 59873.000000 (2022 Oct 21  0:00)
A10TGEB
1 79970U 23999ZZU 22293.99919926 -002IQNQ6 +000FADYL +001O80DAH 19061
2 79970                          -0009M193 -0001RGXG +0002G8OP     09

# Worst residual: 3.51 km
# MJD 59874.000000 (2022 Oct 22  0:00)
A10TGEB
1 79970U 23999ZZU 22294.99919926 -004E7AKU -0001FG6W +00203W1OH 19060
2 79970                          -0006G4TU -0001Z3E4 +0000N6BM     00

# Worst residual: 8.67 km
# MJD 59875.000000 (2022 Oct 23  0:00)
A10TGEB
1 79970U 23999ZZU 22295.99919926 -005Q90C1 -000HY1W1 +0021URH8H 19065
2 79970                          -0004SSEZ -0001TZP7 -00006O9P     04

# Worst residual: 5.52 km
# MJD 59876.000000 (2022 Oct 24  0:00)
A10TGEB
1 79970U 23999ZZU 22296.99919926 -006QASZA -000X62Y9 +001XKI0KH 19062
2 79970                          -0003KZ9D -0001P64F -0000RE9Y     09

# Worst residual: 1.59 km
# MJD 59877.000000 (2022 Oct 25  0:00)
A10TGEB
1 79970U 23999ZZU 22297.99919926 -007GQXME -001BBX9D +001PF74QH 19068
2 79970                          -0002KIHG -0001KQPX -00013EIN     04

# Worst residual: 0.70 km
# MJD 59878.000000 (2022 Oct 26  0:00)
A10TGEB
1 79970U 23999ZZU 22298.99919926 -007Z4SUU -001OCFHT +001F0TJIH 19063
2 79970                          -0001PE33 -0001FL69 -0001APUN     01

# Worst residual: 0.44 km
# MJD 59879.000000 (2022 Oct 27  0:00)
A10TGEB
1 79970U 23999ZZU 22299.99919926 -008AH4E8 -00201H3G +00137331H 19065
2 79970                          -0000XJE6 -00019RQL -0001FI2H     06

# Worst residual: 0.35 km
# MJD 59880.000000 (2022 Oct 28  0:00)
A10TGEB
1 79970U 23999ZZU 22300.99919926 -008FDPG1 -002A9JKN +000QFNXOH 19064
2 79970                          -00007K37 -00013BK7 -0001ILR9     05

# Worst residual: 0.30 km
# MJD 59881.000000 (2022 Oct 29  0:00)
A10TGEB
1 79970U 23999ZZU 22301.99919926 -008E67L6 -002IUXK0 +000D3AMSH 19067
2 79970                          +0000HJZM -0000W60H -0001KDYS     03

